[
  {
    "OBJECT_NAME": "STARLINK-1017",
    "OBJECT_ID": "2019-074L",
    "EPOCH": "2026-03-18T12:34:45.486048",
    "MEAN_MOTION": 15.25027176,
    "ECCENTRICITY": 0.000248,
    "INCLINATION": 53.0527,
    "RA_OF_ASC_NODE": 130.6743,
    "ARG_OF_PERICENTER": 49.6837,
    "MEAN_ANOMALY": 310.4376,
    "EPHEMERIS_TYPE": 0,
    "CLASSIFICATION_TYPE": "U",
    "NORAD_CAT_ID": 44723,
    "ELEMENT_SET_NO": 999,
    "REV_AT_EPOCH": 35031,
    "BSTAR": 0.0013675,
    "MEAN_MOTION_DOT": 0.00034422,
    "MEAN_MOTION_DDOT": 0
  },
  {
    "OBJECT_NAME": "STARLINK-1039",
    "OBJECT_ID": "2019-074AH",
    "EPOCH": "2026-03-18T09:55:47.904960",
    "MEAN_MOTION": 15.22525902,
    "ECCENTRICITY": 0.0001856,
    "INCLINATION": 53.0533,
    "RA_OF_ASC_NODE": 174.9675,
    "ARG_OF_PERICENTER": 211.5967,
    "MEAN_ANOMALY": 148.4917,
    "EPHEMERIS_TYPE": 0,
    "CLASSIFICATION_TYPE": "U",
    "NORAD_CAT_ID": 44744,
    "ELEMENT_SET_NO": 999,
    "REV_AT_EPOCH": 34968,
    "BSTAR": 0.00089412,
    "MEAN_MOTION_DOT": 0.00020728,
    "MEAN_MOTION_DDOT": 0
  },
  {
    "OBJECT_NAME": "STARLINK-1123",
    "OBJECT_ID": "2020-001S",
    "EPOCH": "2026-03-17T21:01:10.114464",
    "MEAN_MOTION": 15.2889986,
    "ECCENTRICITY": 0.0001129,
    "INCLINATION": 53.1503,
    "RA_OF_ASC_NODE": 307.1747,
    "ARG_OF_PERICENTER": 60.4615,
    "MEAN_ANOMALY": 299.6497,
    "EPHEMERIS_TYPE": 0,
    "CLASSIFICATION_TYPE": "U",
    "NORAD_CAT_ID": 44930,
    "ELEMENT_SET_NO": 999,
    "REV_AT_EPOCH": 34112,
    "BSTAR": 0.001333774,
    "MEAN_MOTION_DOT": 0.00037791,
    "MEAN_MOTION_DDOT": 0
  },
  {
    "OBJECT_NAME": "STARLINK-1090",
    "OBJECT_ID": "2020-001BG",
    "EPOCH": "2026-03-18T14:00:00.999360",
    "MEAN_MOTION": 15.29359604,
    "ECCENTRICITY": 0.0001498,
    "INCLINATION": 53.1537,
    "RA_OF_ASC_NODE": 265.1716,
    "ARG_OF_PERICENTER": 96.5864,
    "MEAN_ANOMALY": 16.3689,
    "EPHEMERIS_TYPE": 0,
    "CLASSIFICATION_TYPE": "U",
    "NORAD_CAT_ID": 44968,
    "ELEMENT_SET_NO": 999,
    "REV_AT_EPOCH": 579,
    "BSTAR": -0.00010413,
    "MEAN_MOTION_DOT": -3.36e-05,
    "MEAN_MOTION_DDOT": 0
  },
  {
    "OBJECT_NAME": "STARLINK-1167",
    "OBJECT_ID": "2020-006AD",
    "EPOCH": "2026-03-18T02:56:42.425664",
    "MEAN_MOTION": 15.29823042,
    "ECCENTRICITY": 0.00012295,
    "INCLINATION": 53.1603,
    "RA_OF_ASC_NODE": 218.7192,
    "ARG_OF_PERICENTER": 70.867,
    "MEAN_ANOMALY": 289.2463,
    "EPHEMERIS_TYPE": 0,
    "CLASSIFICATION_TYPE": "U",
    "NORAD_CAT_ID": 45071,
    "ELEMENT_SET_NO": 999,
    "REV_AT_EPOCH": 33816,
    "BSTAR": 0.00093072485,
    "MEAN_MOTION_DOT": 0.00026987,
    "MEAN_MOTION_DDOT": 0
  },
  {
    "OBJECT_NAME": "STARLINK-1168",
    "OBJECT_ID": "2020-006AE",
    "EPOCH": "2026-03-17T16:13:21.604800",
    "MEAN_MOTION": 15.2935344,
    "ECCENTRICITY": 0.00012279,
    "INCLINATION": 53.1619,
    "RA_OF_ASC_NODE": 220.8644,
    "ARG_OF_PERICENTER": 81.8139,
    "MEAN_ANOMALY": 278.3,
    "EPHEMERIS_TYPE": 0,
    "CLASSIFICATION_TYPE": "U",
    "NORAD_CAT_ID": 45072,
    "ELEMENT_SET_NO": 999,
    "REV_AT_EPOCH": 33809,
    "BSTAR": 8.2056225e-05,
    "MEAN_MOTION_DOT": 2.012e-05,
    "MEAN_MOTION_DDOT": 0
  },
  {
    "OBJECT_NAME": "STARLINK-1153",
    "OBJECT_ID": "2020-006AN",
    "EPOCH": "2026-03-17T03:03:06.609312",
    "MEAN_MOTION": 15.29731393,
    "ECCENTRICITY": 9.883e-05,
    "INCLINATION": 53.1615,
    "RA_OF_ASC_NODE": 223.2593,
    "ARG_OF_PERICENTER": 48.2846,
    "MEAN_ANOMALY": 311.8239,
    "EPHEMERIS_TYPE": 0,
    "CLASSIFICATION_TYPE": "U",
    "NORAD_CAT_ID": 45080,
    "ELEMENT_SET_NO": 999,
    "REV_AT_EPOCH": 33801,
    "BSTAR": 0.00086790916,
    "MEAN_MOTION_DOT": 0.00025064,
    "MEAN_MOTION_DDOT": 0
  },
  {
    "OBJECT_NAME": "STARLINK-1184",
    "OBJECT_ID": "2020-006BG",
    "EPOCH": "2026-03-17T17:43:41.450880",
    "MEAN_MOTION": 15.10722012,
    "ECCENTRICITY": 0.00043197,
    "INCLINATION": 53.0525,
    "RA_OF_ASC_NODE": 209.0556,
    "ARG_OF_PERICENTER": 152.0567,
    "MEAN_ANOMALY": 208.0656,
    "EPHEMERIS_TYPE": 0,
    "CLASSIFICATION_TYPE": "U",
    "NORAD_CAT_ID": 45098,
    "ELEMENT_SET_NO": 999,
    "REV_AT_EPOCH": 33825,
    "BSTAR": 0.0012766894,
    "MEAN_MOTION_DOT": 0.00021174,
    "MEAN_MOTION_DDOT": 0
  },
  {
    "OBJECT_NAME": "STARLINK-1231",
    "OBJECT_ID": "2020-012AL",
    "EPOCH": "2026-03-18T09:59:08.802240",
    "MEAN_MOTION": 15.21962673,
    "ECCENTRICITY": 0.0004148,
    "INCLINATION": 53.0479,
    "RA_OF_ASC_NODE": 335.6881,
    "ARG_OF_PERICENTER": 121.9428,
    "MEAN_ANOMALY": 238.1971,
    "EPHEMERIS_TYPE": 0,
    "CLASSIFICATION_TYPE": "U",
    "NORAD_CAT_ID": 45212,
    "ELEMENT_SET_NO": 999,
    "REV_AT_EPOCH": 33655,
    "BSTAR": 0.0015843,
    "MEAN_MOTION_DOT": 0.00036455,
    "MEAN_MOTION_DDOT": 0
  },
  {
    "OBJECT_NAME": "STARLINK-1262",
    "OBJECT_ID": "2020-019G",
    "EPOCH": "2026-03-18T10:17:31.576416",
    "MEAN_MOTION": 15.29349714,
    "ECCENTRICITY": 0.0001228,
    "INCLINATION": 53.1558,
    "RA_OF_ASC_NODE": 124.5684,
    "ARG_OF_PERICENTER": 97.3904,
    "MEAN_ANOMALY": 262.7236,
    "EPHEMERIS_TYPE": 0,
    "CLASSIFICATION_TYPE": "U",
    "NORAD_CAT_ID": 45366,
    "ELEMENT_SET_NO": 999,
    "REV_AT_EPOCH": 33109,
    "BSTAR": 6.5625e-05,
    "MEAN_MOTION_DOT": 1.538e-05,
    "MEAN_MOTION_DDOT": 0
  },
  {
    "OBJECT_NAME": "STARLINK-1276",
    "OBJECT_ID": "2020-019J",
    "EPOCH": "2026-03-18T10:02:34.549152",
    "MEAN_MOTION": 15.11174387,
    "ECCENTRICITY": 0.0001495,
    "INCLINATION": 53.0734,
    "RA_OF_ASC_NODE": 127.1986,
    "ARG_OF_PERICENTER": 88.7089,
    "MEAN_ANOMALY": 271.4073,
    "EPHEMERIS_TYPE": 0,
    "CLASSIFICATION_TYPE": "U",
    "NORAD_CAT_ID": 45368,
    "ELEMENT_SET_NO": 999,
    "REV_AT_EPOCH": 33105,
    "BSTAR": 0.0009792,
    "MEAN_MOTION_DOT": 0.00016364,
    "MEAN_MOTION_DDOT": 0
  },
  {
    "OBJECT_NAME": "STARLINK-1300",
    "OBJECT_ID": "2020-019Q",
    "EPOCH": "2026-03-18T12:14:35.785824",
    "MEAN_MOTION": 15.29354307,
    "ECCENTRICITY": 0.0001201,
    "INCLINATION": 53.1554,
    "RA_OF_ASC_NODE": 124.314,
    "ARG_OF_PERICENTER": 82.0043,
    "MEAN_ANOMALY": 278.1093,
    "EPHEMERIS_TYPE": 0,
    "CLASSIFICATION_TYPE": "U",
    "NORAD_CAT_ID": 45374,
    "ELEMENT_SET_NO": 999,
    "REV_AT_EPOCH": 33110,
    "BSTAR": 5.6135e-05,
    "MEAN_MOTION_DOT": 1.264e-05,
    "MEAN_MOTION_DDOT": 0
  },
  {
    "OBJECT_NAME": "STARLINK-1362",
    "OBJECT_ID": "2020-025H",
    "EPOCH": "2026-03-18T11:21:38.047392",
    "MEAN_MOTION": 15.29727349,
    "ECCENTRICITY": 0.0001474,
    "INCLINATION": 53.1625,
    "RA_OF_ASC_NODE": 60.1964,
    "ARG_OF_PERICENTER": 82.1348,
    "MEAN_ANOMALY": 277.982,
    "EPHEMERIS_TYPE": 0,
    "CLASSIFICATION_TYPE": "U",
    "NORAD_CAT_ID": 45538,
    "ELEMENT_SET_NO": 999,
    "REV_AT_EPOCH": 32652,
    "BSTAR": -0.0060288,
    "MEAN_MOTION_DOT": -0.00172321,
    "MEAN_MOTION_DDOT": 0
  },
  {
    "OBJECT_NAME": "STARLINK-1335",
    "OBJECT_ID": "2020-025BC",
    "EPOCH": "2026-03-18T09:28:19.865568",
    "MEAN_MOTION": 15.29320049,
    "ECCENTRICITY": 0.0001382,
    "INCLINATION": 53.1567,
    "RA_OF_ASC_NODE": 34.6679,
    "ARG_OF_PERICENTER": 108.1151,
    "MEAN_ANOMALY": 252,
    "EPHEMERIS_TYPE": 0,
    "CLASSIFICATION_TYPE": "U",
    "NORAD_CAT_ID": 45581,
    "ELEMENT_SET_NO": 999,
    "REV_AT_EPOCH": 32686,
    "BSTAR": -2.4798e-05,
    "MEAN_MOTION_DOT": -1.071e-05,
    "MEAN_MOTION_DDOT": 0
  }
]