STARLINK-1017           
1 44723U 19074L   26077.52413757  .00034422  00000+0  13675-2 0  9995
2 44723  53.0527 130.6743 0002480  49.6837 310.4376 15.25027176350311
STARLINK-1039           
1 44744U 19074AH  26077.41374890  .00020728  00000+0  89412-3 0  9997
2 44744  53.0533 174.9675 0001856 211.5967 148.4917 15.22525902349681
STARLINK-1123           
1 44930U 20001S   26076.87581151  .00037791  00000+0  13338-2 0  9996
2 44930  53.1503 307.1747 0001129  60.4615 299.6497 15.28899860341126
STARLINK-1090           
1 44968U 20001BG  26077.58334490 -.00003360  00000+0 -10413-3 0  9997
2 44968  53.1537 265.1716 0001498  96.5864  16.3689 15.29359604  5793
STARLINK-1167           
1 45071U 20006AD  26077.12271326  .00026987  00000+0  93072-3 0  9996
2 45071  53.1603 218.7192 0001229  70.8670 289.2463 15.29823042338160
STARLINK-1168           
1 45072U 20006AE  26076.67594450  .00002012  00000+0  82056-4 0  9996
2 45072  53.1619 220.8644 0001227  81.8139 278.3000 15.29353440338092
STARLINK-1153           
1 45080U 20006AN  26076.12715983  .00025064  00000+0  86791-3 0  9992
2 45080  53.1615 223.2593 0000988  48.2846 311.8239 15.29731393338018
STARLINK-1184           
1 45098U 20006BG  26076.73867420  .00021174  00000+0  12767-2 0  9991
2 45098  53.0525 209.0556 0004319 152.0567 208.0656 15.10722012338257
STARLINK-1231           
1 45212U 20012AL  26077.41607410  .00036455  00000+0  15843-2 0  9999
2 45212  53.0479 335.6881 0004148 121.9428 238.1971 15.21962673336557
STARLINK-1262           
1 45366U 20019G   26077.42883769  .00001538  00000+0  65625-4 0  9999
2 45366  53.1558 124.5684 0001228  97.3904 262.7236 15.29349714331097
STARLINK-1276           
1 45368U 20019J   26077.41845543  .00016364  00000+0  97920-3 0  9993
2 45368  53.0734 127.1986 0001495  88.7089 271.4073 15.11174387331057
STARLINK-1300           
1 45374U 20019Q   26077.51013641  .00001264  00000+0  56135-4 0  9994
2 45374  53.1554 124.3140 0001201  82.0043 278.1093 15.29354307331101
STARLINK-1362           
1 45538U 20025H   26077.47335703 -.00172321  00000+0 -60288-2 0  9991
2 45538  53.1625  60.1964 0001474  82.1348 277.9820 15.29727349326529
STARLINK-1335           
1 45581U 20025BC  26077.39467437 -.00001071  00000+0 -24798-4 0  9991
2 45581  53.1567  34.6679 0001382 108.1151 252.0000 15.29320049326867
